IRIDIUM 171             
1 43929U 19002H   25362.57730303  .00000267  00000+0  88167-4 0  9993
2 43929  86.3964  65.1826 0002453  95.1535 264.9941 14.34221132364501
IRIDIUM 170             
1 43930U 19002J   25362.63415713  .00001146  00000+0  17777-3 0  9992
2 43930  86.6076  64.8677 0002280  91.4079 268.7400 14.72271845374163
IRIDIUM 167             
1 43931U 19002K   25362.64072955  .00000014  00000+0 -19562-5 0  9991
2 43931  86.3951  64.8894 0002529  97.5667 262.5817 14.34217583364519
IRIDIUM 181             
1 56726U 23068S   25362.62547817  .00000555  00000+0  15884-3 0  9996
2 56726  86.4525 128.0924 0002078  82.4309 277.7128 14.43313223137839
IRIDIUM 177             
1 56727U 23068T   25362.62850617  .00001544  00000+0  19958-3 0  9997
2 56727  86.1952  49.7826 0002103  87.3067 272.8395 14.80249354141139
IRIDIUM 174             
1 56728U 23068U   25362.62182479  .00001236  00000+0  19201-3 0  9991
2 56728  86.6084  65.0031 0002046  92.8252 267.3200 14.72266975140922
IRIDIUM 178             
1 56729U 23068V   25362.27959375  .00002006  00000+0  26053-3 0  9999
2 56729  86.6542  96.8074 0002470  89.9300 270.2205 14.80249307141088
IRIDIUM 179             
1 56730U 23068W   25362.34183466  .00002000  00000+0  25977-3 0  9997
2 56730  86.6786 105.2521 0002413  89.3860 270.7638 14.80243645141099
